BY70-2                  
1 45857U 20042B   24107.58483571  .00166717  00000+0  86824-2 0  9999
2 45857  97.9084 197.8460 0003654  86.1367 274.0282 15.15215443205173
SALSAT                  
1 46495U 20068K   24107.42162575  .00012213  00000+0  71417-3 0  9991
2 46495  97.8115  65.2351 0014809 157.1071 203.0821 15.11932087194970
RADFXSAT-2 (AO-109)     
1 47311U 21002C   24107.26140064  .01244294  90023-3  18091-2 0  9992
2 47311  60.6578 299.5015 0001827 104.2268 255.9060 16.05017995181596
UVSQ-SAT                
1 47438U 21006AB  24107.42733309  .00067896  00000+0  16484-2 0  9990
2 47438  97.3343 167.3737 0007854  87.9445 272.2701 15.40748027179200
LEDSAT                  
1 49069U 21073D   24107.45173158  .00027969  00000+0  12121-2 0  9990
2 49069  97.4415 179.0966 0021663 139.7093 220.5754 15.22130735147059
XW-3 (CAS-9)            
1 50466U 21131B   24107.54483952  .00001553  00000+0  51227-3 0  9996
2 50466  98.5273 192.9114 0003195 322.0614  38.0348 14.39487183121132
TEVEL-3                 
1 50988U 22002E   24107.57153180  .00144801  00000+0  25028-2 0  9996
2 50988  97.3848 181.1215 0005344 212.6057 147.4865 15.50432824125455
TEVEL-8                 
1 50989U 22002F   24107.54286257  .00147760  00000+0  25655-2 0  9999
2 50989  97.3869 181.1800 0005323 212.4615 147.6310 15.50293730125441
TEVEL-5                 
1 50998U 22002Q   24107.55386692  .00168432  00000+0  26056-2 0  9999
2 50998  97.3836 182.1388 0005962 206.2083 153.8869 15.53456847125526
TEVEL-6                 
1 50999U 22002R   24107.55687885  .00165635  00000+0  25729-2 0  9996
2 50999  97.3830 182.1188 0005855 206.3639 153.7317 15.53353091125522
TEVEL-1                 
1 51013U 22002AF  24107.46684991  .00129542  00000+0  22572-2 0  9999
2 51013  97.3841 180.8896 0005350 210.5868 149.5072 15.50260408125431
TEVEL-7                 
1 51062U 22002CG  24107.46995673  .00132311  00000+0  22950-2 0  9993
2 51062  97.3859 181.0797 0005418 209.9441 150.1502 15.50378631125435
TEVEL-4                 
1 51063U 22002CH  24107.56410613  .00143468  00000+0  25072-2 0  9994
2 51063  97.3862 181.0973 0005429 210.6557 149.4378 15.50124589125449
TEVEL-2                 
1 51069U 22002CP  24107.57029464  .00143599  00000+0  24793-2 0  9995
2 51069  97.3845 181.0878 0005321 211.9427 148.1502 15.50468601125453
GREENCUBE               
1 53106U 22080B   24099.70722617 -.00000003  00000+0  00000+0 0  9995
2 53106  70.1414 216.6532 0008047 121.1128 239.0321  6.42557348 40800
KUZBASS-300 (RS34S)     
1 53375U 22096F   24106.69451655  .00273341  00000+0  16068-2 0  9998
2 53375  97.3860  25.4915 0006665 115.7516 244.4438 15.77456167 94666
UTMN (RS23S)            
1 53376U 22096G   24106.73541614  .00364356  00000+0  15693-2 0  9999
2 53376  97.3829  26.4608 0007164 126.9342 233.2585 15.84049325 94737
MIET-AIS (RS28S)        
1 53377U 22096H   24107.55515194  .00246265  00000+0  20335-2 0  9992
2 53377  97.3904  25.4726 0005430 113.7501 246.4331 15.69550650 94733
KAI-1 (RS26S)           
1 53378U 22096J   24107.59005706  .00109596  00000+0  14639-2 0  9995
2 53378  97.3977  23.5585 0003861 117.2636 242.9013 15.57685028 94609
ISOI (RS19S)            
1 53381U 22096M   24107.58985140  .00263362  00000+0  19835-2 0  9992
2 53381  97.3927  26.3362 0005237 104.9294 255.2549 15.71723094 94797
CUBESX-HSE-2 (RS21S)    
1 53383U 22096P   24106.67177510  .00345637  00000+0  15811-2 0  9993
2 53383  97.3828  26.5723 0006706 113.4300 246.7675 15.82810837 94730
SIREN (RS30S)           
1 53384U 22096Q   24107.57295822  .00160412  00000+0  16558-2 0  9996
2 53384  97.3943  25.0270 0004435  88.3552 271.8215 15.64256769 94700
CAS-5A (FO-118)         
1 54684U 22167C   24107.58599242  .00045849  00000+0  17776-2 0  9992
2 54684  97.5974 251.1695 0009971   2.5868 357.5420 15.25940755 74891
STRATOSAT-TK 1 (RS52S)  
1 57167U 23091B   24107.57832735  .00027477  00000+0  16866-2 0  9990
2 57167  97.6180 160.9000 0014561 333.8432  26.2059 15.09984352 44253
UMKA 1 (RS40S)          
1 57172U 23091G   24107.51916471  .00010365  00000+0  70238-3 0  9992
2 57172  97.6184 160.2103 0016080 336.6905  23.3591 15.06548470 44202
CUBESX-HSE 3 (RS42S)    
1 57178U 23091N   24107.58931392  .00015054  00000+0  99148-3 0  9995
2 57178  97.6222 160.5652 0016393 330.1743  29.8549 15.07508135 44220
MONITOR-4 (RS57S)       
1 57182U 23091S   24107.55966307  .00015230  00000+0  10127-2 0  9996
2 57182  97.6211 160.4060 0016966 330.5512  29.4758 15.07143290 44213
MONITOR-2 (RS39S)       
1 57184U 23091U   24107.55627118  .00009165  00000+0  61793-3 0  9998
2 57184  97.6219 160.5830 0013347 325.3606  34.6751 15.06805453 44222
SVYATOBOR 1 (RS60S)     
1 57187U 23091X   24107.56853041  .00014101  00000+0  91844-3 0  9994
2 57187  97.6213 160.8788 0012766 322.0457  37.9870 15.07977941 44249
VIZARD-METEO (RS38S)    
1 57189U 23091Z   24107.57498794  .00016993  00000+0  10737-2 0  9999
2 57189  97.6204 161.1492 0011548 319.7534  40.2838 15.09063101 44262
NANOZOND 1 (RS49S)      
1 57190U 23091AA  24107.53439790  .00023919  00000+0  14340-2 0  9998
2 57190  97.6188 161.4111 0009765 326.5163  33.5448 15.10920829 44283
POLYTECH-UNIVERSE 3 (R*)
1 57191U 23091AB  24107.55761239  .00010601  00000+0  71446-3 0  9992
2 57191  97.6185 160.3034 0019156 341.8639  18.1902 15.06700923 44219
UTMN 2 (RS27S)          
1 57203U 23091AP  24107.54825936  .00015652  00000+0  99933-3 0  9992
2 57203  97.6213 161.0289 0011824 321.1532  38.8845 15.08697856 44253
ARCCUBE 1 (RS25S)       
1 57205U 23091AR  24107.54992429  .00028334  00000+0  16627-2 0  9995
2 57205  97.6162 161.4682 0009967 327.2129  32.8481 15.11658411 44295
KUZGTU 1 (RS47S)        
1 57217U 23091AV  24107.52662162  .00014919  00000+0  98528-3 0  9999
2 57217  97.6200 160.4006 0016325 332.1136  27.9215 15.07408736 44219
HADES-D (SO-121)        
1 58567U 23174CY  24107.17439800  .00063338  00000+0  26945-2 0  9994
2 58567  97.4580 183.0151 0013864  94.3416 265.9404 15.22681358 24326
